STARLINK-1559           
1 46077U 20055BC  26068.23360559  .00042685  00000+0  14779-2 0  9995
2 46077  53.0254  76.0659 0004229  33.9710 326.1559 15.29461733309518
STARLINK-33665          
1 63281U 25053S   26068.52171899  .00020704  00000+0  75892-3 0  9995
2 63281  43.0015 242.2115 0001663 260.9739  99.0924 15.27616660 56176
